ONEWEB-0403             
1 50483U 21132Q   25169.21313853  .00000067  00000+0  13822-3 0  9999
2 50483  87.9149  47.7787 0001824  76.2848 283.8487 13.18688213174902
ONEWEB-0404             
1 50484U 21132R   25169.54850413  .00000482  00000+0  13250-2 0  9999
2 50484  87.8847  93.5570 0001903  67.2759 292.8570 13.11415885168031
ONEWEB-0405             
1 50485U 21132S   25169.38068837  .00000095  00000+0  20707-3 0  9999
2 50485  87.9146  47.7328 0001530  85.2491 274.8816 13.18688670174048
ONEWEB-0406             
1 50486U 21132T   25169.36963628  .00000090  00000+0  19470-3 0  9990
2 50486  87.9146  47.7562 0002091  65.3864 294.7486 13.18688655173670
ONEWEB-0407             
1 50487U 21132U   25169.21154835 -.00000187  00000+0 -50825-3 0  9995
2 50487  87.9146  47.7737 0001673  80.6139 279.5183 13.18686438173598
ONEWEB-0409             
1 50488U 21132V   25169.31791159  .00000794  00000+0  22044-2 0  9996
2 50488  87.8867  93.5663 0002374  67.2408 292.8970 13.11415118167890
ONEWEB-0412             
1 50489U 21132W   25169.35224112 -.00000001  00000+0 -34317-4 0  9992
2 50489  87.9145  47.7598 0001515  90.5733 269.5572 13.18685859173709
ONEWEB-0413             
1 50490U 21132X   25169.20522931  .00000071  00000+0  14664-3 0  9995
2 50490  87.9147  47.8030 0001671  91.0100 269.1223 13.18688832173626
